{
  "type": "FeatureCollection",
  "features": [
    {
      "type": "Feature",
      "properties": {
        "norad_id": 66406,
        "name": "STARLINK-34840",
        "group": "last-30-days",
        "lat": -21.04834345442757,
        "lon": -69.60076334550924,
        "alt_km": 422.3618425798877,
        "timestamp": "2025-12-03T15:48:01.918710+00:00",
        "meta_object_name": "STARLINK-34840",
        "meta_object_id": "2025-257AC",
        "meta_epoch": "2025-12-03T06:37:34.829184",
        "meta_mean_motion": 15.49320713,
        "meta_eccentricity": 0.00013675,
        "meta_inclination": 53.1585,
        "meta_ra_of_asc_node": 308.9978,
        "meta_arg_of_pericenter": 105.7634,
        "meta_mean_anomaly": 254.3526,
        "meta_ephemeris_type": 0,
        "meta_classification_type": "U",
        "meta_norad_cat_id": 66406,
        "meta_element_set_no": 999,
        "meta_rev_at_epoch": 485,
        "meta_bstar": 0.0013182867,
        "meta_mean_motion_dot": 0.00073594,
        "meta_mean_motion_ddot": 0,
        "tle_line1": "1 66406U 25257AC  25337.27609756  .00073594  00000+0  13183-2 0  9990",
        "tle_line2": "2 66406  53.1585 308.9978 0001367 105.7634 254.3526 15.49320713  4857"
      },
      "geometry": {
        "type": "Point",
        "coordinates": [
          -69.60076334550924,
          -21.04834345442757
        ]
      }
    },
    {
      "type": "Feature",
      "properties": {
        "norad_id": 66407,
        "name": "STARLINK-35686",
        "group": "last-30-days",
        "lat": -23.947165337343407,
        "lon": -72.27250920810228,
        "alt_km": 422.49293796015263,
        "timestamp": "2025-12-03T15:48:01.918720+00:00",
        "meta_object_name": "STARLINK-35686",
        "meta_object_id": "2025-257AD",
        "meta_epoch": "2025-12-03T06:38:34.225728",
        "meta_mean_motion": 15.49331339,
        "meta_eccentricity": 0.00014419,
        "meta_inclination": 53.1586,
        "meta_ra_of_asc_node": 309.0028,
        "meta_arg_of_pericenter": 96.2738,
        "meta_mean_anomaly": 263.8435,
        "meta_ephemeris_type": 0,
        "meta_classification_type": "U",
        "meta_norad_cat_id": 66407,
        "meta_element_set_no": 999,
        "meta_rev_at_epoch": 491,
        "meta_bstar": 0.0015742005,
        "meta_mean_motion_dot": 0.00088166,
        "meta_mean_motion_ddot": 0,
        "tle_line1": "1 66407U 25257AD  25337.27678502  .00088166  00000+0  15742-2 0  9990",
        "tle_line2": "2 66407  53.1586 309.0028 0001441  96.2738 263.8435 15.49331339  4916"
      },
      "geometry": {
        "type": "Point",
        "coordinates": [
          -72.27250920810228,
          -23.947165337343407
        ]
      }
    },
    {
      "type": "Feature",
      "properties": {
        "norad_id": 66408,
        "name": "STARLINK-35679",
        "group": "last-30-days",
        "lat": -22.484280306976558,
        "lon": -70.90332564234005,
        "alt_km": 422.2185655556086,
        "timestamp": "2025-12-03T15:48:01.918730+00:00",
        "meta_object_name": "STARLINK-35679",
        "meta_object_id": "2025-257AE",
        "meta_epoch": "2025-12-03T06:38:04.536960",
        "meta_mean_motion": 15.49339506,
        "meta_eccentricity": 0.00013913,
        "meta_inclination": 53.1589,
        "meta_ra_of_asc_node": 309.0018,
        "meta_arg_of_pericenter": 91.3604,
        "meta_mean_anomaly": 268.7565,
        "meta_ephemeris_type": 0,
        "meta_classification_type": "U",
        "meta_norad_cat_id": 66408,
        "meta_element_set_no": 999,
        "meta_rev_at_epoch": 491,
        "meta_bstar": 0.0017362114,
        "meta_mean_motion_dot": 0.0009743,
        "meta_mean_motion_ddot": 0,
        "tle_line1": "1 66408U 25257AE  25337.27644140  .00097430  00000+0  17362-2 0  9996",
        "tle_line2": "2 66408  53.1589 309.0018 0001391  91.3604 268.7565 15.49339506  4913"
      },
      "geometry": {
        "type": "Point",
        "coordinates": [
          -70.90332564234005,
          -22.484280306976558
        ]
      }
    },
    {
      "type": "Feature",
      "properties": {
        "norad_id": 66409,
        "name": "CHUTIAN-2 A",
        "group": "last-30-days",
        "lat": -38.233464627997854,
        "lon": -144.00617074882672,
        "alt_km": 723.1256779551641,
        "timestamp": "2025-12-03T15:48:01.918741+00:00",
        "meta_object_name": "CHUTIAN-2 A",
        "meta_object_id": "2025-256A",
        "meta_epoch": "2025-12-03T08:10:12.782208",
        "meta_mean_motion": 14.49916211,
        "meta_eccentricity": 0.00133207,
        "meta_inclination": 98.2771,
        "meta_ra_of_asc_node": 42.2674,
        "meta_arg_of_pericenter": 206.2833,
        "meta_mean_anomaly": 153.7687,
        "meta_ephemeris_type": 0,
        "meta_classification_type": "U",
        "meta_norad_cat_id": 66409,
        "meta_element_set_no": 999,
        "meta_rev_at_epoch": 351,
        "meta_bstar": 3.8683214e-05,
        "meta_mean_motion_dot": 1.06e-06,
        "meta_mean_motion_ddot": 0,
        "tle_line1": "1 66409U 25256A   25337.34042572  .00000106  00000+0  38683-4 0  9990",
        "tle_line2": "2 66409  98.2771  42.2674 0013320 206.2833 153.7687 14.49916211  3513"
      },
      "geometry": {
        "type": "Point",
        "coordinates": [
          -144.00617074882672,
          -38.233464627997854
        ]
      }
    },
    {
      "type": "Feature",
      "properties": {
        "norad_id": 66410,
        "name": "CHUTIAN-2 B",
        "group": "last-30-days",
        "lat": -76.78675547498497,
        "lon": 80.9462647154246,
        "alt_km": 726.6045800123084,
        "timestamp": "2025-12-03T15:48:01.918750+00:00",
        "meta_object_name": "CHUTIAN-2 B",
        "meta_object_id": "2025-256B",
        "meta_epoch": "2025-12-02T21:57:45.179136",
        "meta_mean_motion": 14.51003588,
        "meta_eccentricity": 0.00132686,
        "meta_inclination": 98.28,
        "meta_ra_of_asc_node": 41.8824,
        "meta_arg_of_pericenter": 211.6733,
        "meta_mean_anomaly": 148.3664,
        "meta_ephemeris_type": 0,
        "meta_classification_type": "U",
        "meta_norad_cat_id": 66410,
        "meta_element_set_no": 999,
        "meta_rev_at_epoch": 345,
        "meta_bstar": 0.00024626228,
        "meta_mean_motion_dot": 9.31e-06,
        "meta_mean_motion_ddot": 0,
        "tle_line1": "1 66410U 25256B   25336.91510624  .00000931  00000+0  24626-3 0  9999",
        "tle_line2": "2 66410  98.2800  41.8824 0013268 211.6733 148.3664 14.51003588  3455"
      },
      "geometry": {
        "type": "Point",
        "coordinates": [
          80.9462647154246,
          -76.78675547498497
        ]
      }
    },
    {
      "type": "Feature",
      "properties": {
        "norad_id": 66411,
        "name": "ZK-1A R/B",
        "group": "last-30-days",
        "lat": 29.235582384539818,
        "lon": 40.07903787531762,
        "alt_km": 623.1054776859582,
        "timestamp": "2025-12-03T15:48:01.918760+00:00",
        "meta_object_name": "ZK-1A R/B",
        "meta_object_id": "2025-256C",
        "meta_epoch": "2025-12-03T04:28:24.848544",
        "meta_mean_motion": 15.01610086,
        "meta_eccentricity": 0.02296558,
        "meta_inclination": 98.325,
        "meta_ra_of_asc_node": 44.2737,
        "meta_arg_of_pericenter": 276.9152,
        "meta_mean_anomaly": 80.5997,
        "meta_ephemeris_type": 0,
        "meta_classification_type": "U",
        "meta_norad_cat_id": 66411,
        "meta_element_set_no": 999,
        "meta_rev_at_epoch": 361,
        "meta_bstar": 0.00077100122,
        "meta_mean_motion_dot": 0.00017696,
        "meta_mean_motion_ddot": 0,
        "tle_line1": "1 66411U 25256C   25337.18639871  .00017696  00000+0  77100-3 0  9997",
        "tle_line2": "2 66411  98.3250  44.2737 0229655 276.9152  80.5997 15.01610086  3611"
      },
      "geometry": {
        "type": "Point",
        "coordinates": [
          40.07903787531762,
          29.235582384539818
        ]
      }
    },
    {
      "type": "Feature",
      "properties": {
        "norad_id": 66412,
        "name": "HULIANWANG DIGUI 13A",
        "group": "last-30-days",
        "lat": 23.58244472201618,
        "lon": -38.306448989699504,
        "alt_km": 806.4475356120447,
        "timestamp": "2025-12-03T15:48:01.918769+00:00",
        "meta_object_name": "HULIANWANG DIGUI 13A",
        "meta_object_id": "2025-258A",
        "meta_epoch": "2025-12-03T08:54:50.699232",
        "meta_mean_motion": 14.23491652,
        "meta_eccentricity": 0.00140899,
        "meta_inclination": 50.0041,
        "meta_ra_of_asc_node": 301.4032,
        "meta_arg_of_pericenter": 324.7916,
        "meta_mean_anomaly": 35.2065,
        "meta_ephemeris_type": 0,
        "meta_classification_type": "U",
        "meta_norad_cat_id": 66412,
        "meta_element_set_no": 999,
        "meta_rev_at_epoch": 332,
        "meta_bstar": 0.00011435955,
        "meta_mean_motion_dot": 1.03e-06,
        "meta_mean_motion_ddot": 0,
        "tle_line1": "1 66412U 25258A   25337.37142013  .00000103  00000+0  11436-3 0  9993",
        "tle_line2": "2 66412  50.0041 301.4032 0014089 324.7916  35.2065 14.23491652  3324"
      },
      "geometry": {
        "type": "Point",
        "coordinates": [
          -38.306448989699504,
          23.58244472201618
        ]
      }
    }
  ]
}